SSOT                    
1 38011U 11076E   21129.49323755  .00004350  00000-0  55508-3 0  9999
2 38011  97.8331 206.3462 0001620 102.3726 257.8994 14.81969131508201
PLEIADES 1A             
1 38012U 11076F   21129.24818037  .00000001  00000-0  10099-4 0  9991
2 38012  98.2009 205.0217 0001439 100.1021 260.0352 14.58550728500157
NIGCOMSAT 1R            
1 38014U 11077A   21129.16193140  .00000144  00000-0  00000-0 0  9991
2 38014   0.0102  92.1193 0001478 350.5260 245.3316  1.00272538 34253
ZIYUAN 1-02C (ZY 1-02C) 
1 38038U 11079A   21129.24549896  .00000041  00000-0  29960-4 0  9997
2 38038  98.6414 189.4520 0007791  31.7594 328.4062 14.35305517491506
GLOBALSTAR M084         
1 38040U 11080A   21129.19219654 -.00000107  00000-0 -17215-4 0  9997
2 38040  52.0009 295.0168 0000556 102.2185  68.9219 12.62264270433354
GLOBALSTAR M080         
1 38041U 11080B   21129.24487510 -.00000100  00000-0  20496-4 0  9999
2 38041  52.0067 295.9353 0000484 104.4961  66.6628 12.62269030433448
GLOBALSTAR M082         
1 38042U 11080C   21129.30369951 -.00000110  00000-0 -36927-4 0  9993
2 38042  52.0071 251.0441 0001008 131.1973 246.9760 12.62265262434116
GLOBALSTAR M092         
1 38043U 11080D   21129.14853809 -.00000076  00000-0  15331-3 0  9991
2 38043  52.0100 341.8098 0000927  70.0676  83.0021 12.62262836432646
GLOBALSTAR M090         
1 38044U 11080E   21129.04678361 -.00000116  00000-0 -68413-4 0  9995
2 38044  51.9882 247.5684 0000684 139.8911  30.8024 12.62266323434168
GLOBALSTAR M086         
1 38045U 11080F   21129.27679626 -.00000115  00000-0 -64599-4 0  9996
2 38045  51.9892 247.3028 0001120 223.1264 152.9418 12.62266026434145
ZIYUAN 3-1 (ZY 3-1)     
1 38046U 12001A   21129.18805800  .00000727  00000-0  35463-4 0  9991
2 38046  97.3817 203.9396 0003990 112.4735 331.7927 15.21395544518144
FENGYUN 2F              
1 38049U 12002A   21129.15035390 -.00000357  00000-0  00000-0 0  9996
2 38049   2.8228  82.2534 0003539  51.1398 260.1560  1.00275457 34186
WGS F4 (USA 233)        
1 38070U 12003A   21129.01654841 -.00000216  00000-0  00000-0 0  9998
2 38070   0.0237 262.5150 0000314 237.9691 180.9114  1.00268477 25442
LARES                   
1 38077U 12006A   21129.01897097 -.00000028  00000-0  62930-4 0  9995
2 38077  69.4944 238.1135 0008778 345.5411  14.5339 12.54931264423167
SES-4                   
1 38087U 12007A   21128.38730545 -.00000172  00000-0  00000-0 0  9996
2 38087   0.0221 315.7480 0002567 104.8586 283.2566  1.00270893 33539
BEIDOU 11               
1 38091U 12008A   21129.26993920  .00000057  00000-0  00000-0 0  9999
2 38091   1.4714  66.6294 0008797 320.1965 356.3081  1.00271538 33773
MUOS-1                  
1 38093U 12009A   21129.28258911 -.00000127  00000-0  00000-0 0  9997
2 38093   2.6047  19.4111 0058612   2.1308 207.5290  1.00271228 33742
INTELSAT 22 (IS-22)     
1 38098U 12011A   21129.07341172 -.00000060  00000-0  00000-0 0  9990
2 38098   0.0120 304.8454 0002637 106.0268 274.7643  1.00272491 33119
APSTAR 7                
1 38107U 12013A   21129.16864856 -.00000102  00000-0  00000-0 0  9999
2 38107   0.0108 283.6383 0003230 144.5362 296.2324  1.00270084 33103
YAHSAT 1B               
1 38245U 12016A   21129.16289100  .00000126  00000-0  00000-0 0  9993
2 38245   0.0173 257.9457 0002212 173.4413 262.0358  1.00266454 26893
BEIDOU 12               
1 38250U 12018A   21129.26168573 -.00000104  00000-0  00000-0 0  9999
2 38250  56.7559   6.9049 0020730 251.4173  46.3086  1.86234322 61555
BEIDOU 13               
1 38251U 12018B   21129.18857506 -.00000104  00000-0  00000-0 0  9992
2 38251  56.6790   6.2592 0011865 257.4478  35.6774  1.86234213 61555
AEHF-2 (USA 235)        
1 38254U 12019A   21129.26976233 -.00000275  00000-0  00000-0 0  9993
2 38254   2.5548  55.6909 0007506  23.7023 177.5056  1.00271823 32153
TIANHUI 1-02            
1 38256U 12020A   21129.17654230  .00000592  00000-0  28071-4 0  9990
2 38256  97.4509 255.6601 0015133 268.1032 213.4249 15.23145123500850
YAOGAN 14               
1 38257U 12021A   21129.22111407  .00000762  00000-0  34948-4 0  9991
2 38257  97.4869 265.6431 0001443  97.7414  22.0261 15.23472499501994
JCSAT-13                
1 38331U 12023A   21128.96277185 -.00000358  00000-0  00000-0 0  9992
2 38331   0.0469  95.4157 0002162 329.4412 272.7417  1.00274735 32820
VINASAT-2               
1 38332U 12023B   21129.17964029 -.00000329  00000-0  00000+0 0  9994
2 38332   0.0184 288.6730 0002640 138.7037 356.3520  1.00271410 32914
GCOM-W1 (SHIZUKU)       
1 38337U 12025A   21129.09539528  .00000032  00000-0  17159-4 0  9992
2 38337  98.2068  70.3547 0002120  61.3498 309.1403 14.57113552477430
ARIRANG-3 (KOMPSAT-3)   
1 38338U 12025B   21129.10093416  .00000068  00000-0  23244-4 0  9997
2 38338  98.1844  69.4508 0010426 192.8309 167.2634 14.61669098478905
SDS-4                   
1 38339U 12025C   21129.21269888  .00000051  00000-0  16995-4 0  9995
2 38339  98.3002 182.5076 0008899 108.4158 251.8015 14.70640510481508
NIMIQ 6                 
1 38342U 12026A   21129.26271115 -.00000174  00000-0  00000-0 0  9994
2 38342   0.0076 329.0425 0002424  79.0549 182.6636  1.00271940 31725
CHINASAT 2A (ZX 2A)     
1 38352U 12028A   21129.18505294 -.00000294  00000-0  00000-0 0  9999
2 38352   0.0112 309.5255 0002813 109.4391 333.0895  1.00275046 32671
YAOGAN 15               
1 38354U 12029A   21129.31576392 -.00000027  00000-0  48372-4 0  9996
2 38354 100.6243 276.4663 0025461 190.5946 169.4630 13.18264044429712
INTELSAT 19 (IS-19)     
1 38356U 12030A   21129.27753840 -.00000057  00000-0  00000-0 0  9995
2 38356   0.0192 265.8609 0003046 143.4694  83.8901  1.00269477 31749
NUSTAR                  
1 38358U 12031A   21129.10639509  .00000951  00000-0  25238-4 0  9991
2 38358   6.0272  63.1329 0012280 265.1846  94.6881 14.88517940484532
ECHOSTAR 17             
1 38551U 12035A   21129.23584241 -.00000075  00000-0  00000-0 0  9990
2 38551   0.0156 267.4885 0001798 133.9092 163.6690  1.00270221 32368
METEOSAT-10 (MSG-3)     
1 38552U 12035B   21129.08350632  .00000059  00000-0  00000-0 0  9990
2 38552   1.2091   7.1429 0001306   4.9496 254.4754  1.00266491 32154
SES-5                   
1 38652U 12036A   21129.15442911  .00000033  00000-0  00000-0 0  9994
2 38652   0.0371 297.9418 0001682 113.3495 236.4598  1.00271047 25792
KANOPUS-V 1             
1 38707U 12039A   21129.23652878  .00000551  00000-0  28995-4 0  9994
2 38707  97.4639  50.2488 0001875  79.4435  75.1065 15.19695535487973
BKA 2                   
1 38708U 12039B   21129.12918334  .00000355  00000-0  19524-4 0  9995
2 38708  97.3617  34.2055 0001833  72.9145  36.8747 15.20136044487968
EXACTVIEW-1 (ADS-1B)    
1 38709U 12039C   21129.20677010 -.00000006  00000-0  17893-4 0  9999
2 38709  99.0633 179.4000 0011796 135.9200 224.2920 14.24047194457209
TET-1                   
1 38710U 12039D   21129.18572831  .00003580  00000-0  56596-4 0  9995
2 38710  97.5593 180.7945 0003460  89.6355 270.5295 15.54211489494425
MKA-PN 1                
1 38711U 12039E   21129.18809484  .00000001  00000-0  20604-4 0  9999
2 38711  99.0603 178.7784 0012417 136.7615 223.4540 14.24326722457273
TIANLIAN 1-03           
1 38730U 12040A   21129.19980080  .00000125  00000-0  00000-0 0  9996
2 38730   1.0104  96.8680 0007095 314.7375 267.9393  1.00273911 32285
COSMOS 2481             
1 38733U 12041A   21129.18420376 -.00000008  00000-0 -13014-3 0  9990
2 38733  82.4744 157.9277 0018711 173.9845 186.1471 12.42384030398249
GONETS-M 3              
1 38734U 12041B   21129.16830930 -.00000005  00000-0 -10847-3 0  9998
2 38734  82.4743 152.8511 0016291 177.9548 182.1606 12.44818346398687
GONETS-M 4              
1 38736U 12041D   21129.15969375 -.00000012  00000-0 -15837-3 0  9997
2 38736  82.4791 156.0008 0025145 163.3774 196.8134 12.43821883398516
INTELSAT 20 (IS-20)     
1 38740U 12043A   21129.16707833 -.00000026  00000-0  00000-0 0  9991
2 38740   0.0209 168.4516 0001208  20.7102 166.6859  1.00272994 32043
HYLAS 2                 
1 38741U 12043B   21129.13711955  .00000153  00000-0  00000-0 0  9999
2 38741   0.0160 263.0332 0001756 147.5288 256.9744  1.00269505 32061
EXPRESS-MD2             
1 38745U 12044B   21129.11134884  .00010025  34320-5  25885-3 0  9999
2 38745  49.8776 350.8442 2180710  42.4293 332.5935 11.09813666343404
INTELSAT 21 (IS-21)     
1 38749U 12045A   21129.22680065 -.00000285  00000-0  00000-0 0  9993
2 38749   0.0085  87.4011 0002214 327.0403 196.4733  1.00273360 31835
SPOT 6                  
1 38755U 12047A   21129.26404951 -.00000299  00000-0 -54460-4 0  9993
2 38755  98.2031 197.4765 0001309  80.2739 279.8602 14.58547930461230
AEROCUBE 4.5A           
1 38767U 12048K   21129.19803397  .00000235  00000-0  33642-4 0  9993
2 38767  64.6654 297.5018 0148057  19.5321 341.1379 14.92745715 90419
AEROCUBE 4.5B           
1 38768U 12048L   21129.19346587  .00000301  00000-0  36030-4 0  9995
2 38768  64.6663 260.1591 0139880  13.9171 346.5735 14.96592947 90615
METOP-B                 
1 38771U 12049A   21129.23685439  .00000006  00000-0  22760-4 0  9994
2 38771  98.7178 189.8037 0002276 112.0536 264.7562 14.21476568448315
BEIDOU 15               
1 38775U 12050B   21129.21581978  .00000060  00000-0  00000-0 0  9990
2 38775  55.1898 125.3045 0016152 316.1868 192.5971  1.86232281 58938
ASTRA 2F                
1 38778U 12051A   21129.15905262  .00000149  00000-0  00000-0 0  9991
2 38778   0.0635 240.1301 0000437  14.3794  58.1258  1.00270611 22418
GSAT-10                 
1 38779U 12051B   21129.09816196 -.00000167  00000-0  00000-0 0  9993
2 38779   0.0367 267.3171 0001123 151.3017 286.8917  1.00272403 31413
VRSS-1                  
1 38782U 12052A   21129.15747225  .00000076  00000-0  17966-4 0  9992
2 38782  97.7145 182.0138 0016991 181.6102 178.5059 14.76071679464233
